OBJECT_NAME,OBJECT_ID,EPOCH,MEAN_MOTION,ECCENTRICITY,INCLINATION,RA_OF_ASC_NODE,ARG_OF_PERICENTER,MEAN_ANOMALY,EPHEMERIS_TYPE,CLASSIFICATION_TYPE,NORAD_CAT_ID,ELEMENT_SET_NO,REV_AT_EPOCH,BSTAR,MEAN_MOTION_DOT,MEAN_MOTION_DDOT
GLOBALSTAR M069,2007-020C,2026-06-28T19:36:51.407424,12.23471629,.00020671,52.0004,219.2090,173.7655,358.6688,0,U,31573,999,88022,.24986455E-3,-.66E-6,0
GLOBALSTAR M072,2007-020D,2026-06-28T21:11:27.513312,11.91658427,.00015331,51.9938,69.1082,1.0008,80.6918,0,U,31574,999,87637,.79440783E-4,-.78E-6,0
GLOBALSTAR M066,2007-048C,2026-06-28T22:56:40.953984,12.30387133,.00056531,51.9600,24.1274,68.8011,78.4927,0,U,32265,999,86167,-.17792912E-4,-.97E-6,0
GLOBALSTAR M079,2010-054A,2026-06-28T20:36:51.381792,12.62266291,.00009526,52.0045,73.1397,49.1251,27.6314,0,U,37188,999,72402,.49522315E-4,-.95E-6,0
GLOBALSTAR M074,2010-054B,2026-06-28T17:15:08.150112,12.62261912,.00007589,52.0023,72.8292,69.8334,330.2849,0,U,37189,999,72461,.23685295E-3,-.61E-6,0
GLOBALSTAR M076,2010-054C,2026-06-28T23:26:37.311072,12.62261901,.00009684,52.0032,72.2480,64.5382,308.3304,0,U,37190,999,72436,.1500449E-4,-.101E-5,0
GLOBALSTAR M077,2010-054D,2026-06-28T22:19:14.820096,11.67547998,.0002541,51.9931,149.4896,194.0728,198.1863,0,U,37191,999,72251,-.16897124E-3,-.87E-6,0
GLOBALSTAR M075,2010-054E,2026-06-28T19:59:17.749248,12.62267439,.00004421,51.9940,114.7339,38.4342,340.0268,0,U,37192,999,72341,-.48426053E-4,-.112E-5,0
GLOBALSTAR M073,2010-054F,2026-06-28T19:57:47.552832,12.62266700,.00010816,52.0076,28.8469,70.2566,301.8791,0,U,37193,999,72540,.97047088E-4,-.86E-6,0
GLOBALSTAR M083,2011-033A,2026-06-28T21:04:34.440096,12.62263686,.0000957,51.9880,336.9181,85.5220,78.8370,0,U,37739,999,69442,.11732179E-3,-.83E-6,0
GLOBALSTAR M088,2011-033B,2026-06-28T14:40:48.478080,12.62269047,.00004424,52.0200,244.1869,144.1349,7.0871,0,U,37740,999,68993,.19455188E-3,-.69E-6,0
GLOBALSTAR M091,2011-033C,2026-06-28T18:54:01.513728,12.62264128,.00000169,51.9968,206.5991,228.6162,302.8951,0,U,37741,999,69074,.10722086E-3,-.85E-6,0
GLOBALSTAR M085,2011-033D,2026-06-28T21:34:35.143104,12.62264253,.0000387,52.0102,157.5605,2.0228,16.4708,0,U,37742,999,69127,-.18008882E-4,-.107E-5,0
GLOBALSTAR M081,2011-033E,2026-06-29T00:13:58.812672,12.62265307,.0000281,51.9932,159.6464,35.9177,5.5411,0,U,37743,999,69143,-.24651548E-4,-.108E-5,0
GLOBALSTAR M089,2011-033F,2026-06-28T23:28:03.725760,12.62267387,.00005202,51.9922,113.9000,79.1060,358.3495,0,U,37744,999,69227,-.79876405E-4,-.118E-5,0
GLOBALSTAR M084,2011-080A,2026-06-28T17:44:40.570944,12.62267610,.00010934,52.0027,342.1133,104.6258,268.6113,0,U,38040,999,67022,-.108684E-5,-.104E-5,0
GLOBALSTAR M080,2011-080B,2026-06-28T17:03:23.697216,12.62269681,.00004288,52.0083,343.9228,77.3973,295.6197,0,U,38041,999,67034,.19309502E-4,-.1E-5,0
GLOBALSTAR M082,2011-080C,2026-06-28T18:13:27.343200,12.62263728,.00004564,52.0086,299.2775,106.9929,57.0103,0,U,38042,999,67105,.42071953E-4,-.96E-6,0
GLOBALSTAR M092,2011-080D,2026-06-28T23:12:17.085888,12.62267222,.00008387,52.0098,29.0429,80.7266,65.8957,0,U,38043,999,66953,.1204857E-3,-.82E-6,0
GLOBALSTAR M090,2011-080E,2026-06-28T18:52:21.722592,12.62252821,.00005989,52.0134,293.1548,100.0618,65.9123,0,U,38044,999,67117,.33693075E-4,-.98E-6,0
GLOBALSTAR M086,2011-080F,2026-06-28T19:24:48.972960,12.62287332,.00016903,51.9908,292.9969,86.8340,83.4940,0,U,38045,999,67112,.18289122E-3,-.71E-6,0
GLOBALSTAR M097,2013-005A,2026-06-28T07:52:10.674912,12.62271251,.00001287,52.0016,209.4238,85.1952,274.8929,0,U,39072,999,61831,.16384416E-3,-.74E-6,0
GLOBALSTAR M093,2013-005B,2026-06-28T18:37:40.758816,12.62266161,.00002591,52.0074,201.4093,36.1350,323.9534,0,U,39073,999,61832,.12383664E-3,-.82E-6,0
GLOBALSTAR M094,2013-005C,2026-06-28T20:31:30.660672,12.62268461,.00006936,51.9949,115.2727,31.5119,328.5789,0,U,39074,999,61994,-.12474166E-3,-.126E-5,0
GLOBALSTAR M096,2013-005D,2026-06-28T22:44:59.398944,12.62265683,.00003265,52.0047,163.8015,6.2608,353.8263,0,U,39075,999,61887,-.51410582E-4,-.113E-5,0
GLOBALSTAR M078,2013-005E,2026-06-28T22:06:12.697920,12.62260145,.00005204,51.9860,247.8788,281.5213,78.5595,0,U,39076,999,61749,.69535759E-3,.21E-6,0
GLOBALSTAR M095,2013-005F,2026-06-28T11:20:31.853760,12.62263675,.00000449,52.0069,246.8643,52.8039,307.2832,0,U,39077,999,61729,.18333598E-3,-.71E-6,0
GLOBALSTAR M087,2022-064A,2026-06-28T23:03:40.067424,12.62269270,.00009061,52.0010,26.6084,61.9488,298.1470,0,U,52888,999,19262,.70328413E-4,-.91E-6,0
